438P/Christensen,e,8.2807,260.1079,58.9719,3.853037,0.1303165,0.41409903,259.9017,09/17.0/2025,2000,g 14.5,4.0
# From MPEC 2022-C56
439P/LINEAR,e,7.1114,56.4379,342.1081,3.491986,0.1510412,0.46900853,223.9401,09/17.0/2025,2000,g 13.5,4.0
# From MPEC 2024-N80
440P/Kobayashi,e,12.3529,328.7974,183.3060,8.580004,0.0392169,0.76093704,49.6675,09/17.0/2025,2000,g 15.5,4.0
# From MPEC 2025-S35
441P/PANSTARRS,e,2.5744,143.5860,178.8641,4.131661,0.1173592,0.19452995,0.8958,09/17.0/2025,2000,g 13.5,4.0
# From MPEC 2024-N80
442P/McNaught,e,6.0577,31.9262,310.6254,4.952992,0.0894134,0.53260606,100.7280,09/17.0/2025,2000,g 13.5,4.0
# From MPEC 2024-TD8
443P/PANSTARRS-Christensen,e,19.8880,108.9335,145.0573,4.124501,0.1176649,0.28285877,126.3500,09/17.0/2025,2000,g 13.5,4.0
# From MPEC 2023-VM5
444P/WISE-PANSTARRS,e,22.7104,88.1918,172.8331,3.476444,0.1520552,0.55603898,178.9487,09/17.0/2025,2000,g 17.0,4.0
# From MPEC 2025-R69
445P/Lemmon-PANSTARRS,e,1.0891,126.5935,213.1405,4.045186,0.1211424,0.41431230,136.6474,09/17.0/2025,2000,g 15.0,4.0
# From MPEC 2024-NE4
446P/McNaught,e,16.6354,336.3213,344.6134,4.558773,0.1012586,0.64683495,122.2725,09/17.0/2025,2000,g 16.5,4.0
# From MPEC 2022-YB4
447P/Sheppard-Tholen,e,7.4414,302.6377,97.4532,5.624580,0.0738872,0.17711894,83.3749,09/17.0/2025,2000,g 12.0,4.0
# From MPEC 2024-PC5
448P/PANSTARRS,e,12.1439,161.7519,218.8057,3.636670,0.1421177,0.41804475,157.3220,09/17.0/2025,2000,g 16.0,4.0
# From MPEC 2024-DC6
449P/Leonard,e,15.4694,242.5207,176.7741,3.599682,0.1443138,0.47974676,253.4699,09/17.0/2025,2000,g 16.0,4.0
# From MPC184420
450P/LONEOS,e,10.7630,124.0869,24.5848,7.911558,0.0442905,0.31398620,337.3345,09/17.0/2025,2000,g  6.5,4.0
# From MPEC 2023-HD1
451P/Christensen,e,26.4864,300.8644,186.8055,6.351022,0.0615799,0.55927772,63.0544,09/17.0/2025,2000,g 13.5,4.0
# From MPEC 2024-NE4
452P/Sheppard-Jewitt,e,6.4222,123.6626,37.1074,7.312265,0.0498455,0.42866297,43.6098,09/17.0/2025,2000,g  9.0,4.0
# From MPEC 2023-RF3
453P/WISE-Lemmon,e,27.0572,42.8897,70.9094,5.468049,0.0770824,0.58317447,71.5766,09/17.0/2025,2000,g 14.0,4.0
# From MPEC 2023-CD7
454P/PANSTARRS,e,19.8082,54.5864,20.2104,4.211852,0.1140235,0.36137001,130.9333,09/17.0/2025,2000,g 14.0,4.0
# From MPEC 2022-Y14
455P/PANSTARRS,e,14.1342,146.1777,237.5394,3.153590,0.1759934,0.30434978,164.5833,09/17.0/2025,2000,g 17.0,4.0
# From MPC182892
456P/PANSTARRS,e,16.9649,243.1398,232.9840,3.168988,0.1747122,0.11573578,27.1144,09/17.0/2025,2000,g 13.5,4.0
# From MPEC 2025-A40
457P/Lemmon-PANSTARRS,e,5.2258,175.9637,104.3018,2.645048,0.2291151,0.11834285,90.0422,09/17.0/2025,2000,g 15.5,4.0
# From MPEC 2023-HD1
458P/Jahn,e,13.6218,1.5545,104.9528,3.859396,0.1299945,0.31726843,136.7685,09/17.0/2025,2000,g 14.0,4.0
# From MPEC 2024-N80
459P/Catalina,e,7.1735,256.9872,205.2306,3.240446,0.1689650,0.57787909,158.5295,09/17.0/2025,2000,g 15.5,4.0
# From MPEC 2023-G14
460P/PANSTARRS,e,18.9003,180.5173,351.9322,3.027407,0.1871103,0.66426007,290.8410,09/17.0/2025,2000,g 21.0,4.0
# From MPEC 2024-GJ3
461P/WISE,e,18.3972,194.3751,174.8294,3.144522,0.1767552,0.56950004,255.1688,09/17.0/2025,2000,g 18.5,4.0
# From MPEC 2024-BE0
462P/LONEOS-PANSTARRS,e,7.0517,322.6448,4.1861,4.859898,0.0919948,0.57861724,105.1566,09/17.0/2025,2000,g 17.0,4.0
# From MPEC 2024-GJ3
463P/NEOWISE,e,29.2966,283.2188,216.3408,2.974051,0.1921682,0.82594718,173.3498,09/17.0/2025,2000,g 18.0,4.0
# From MPEC 2024-Q20
464P/PANSTARRS,e,21.6739,309.5789,267.5032,4.683454,0.0972422,0.28064075,90.7004,09/17.0/2025,2000,g 10.5,4.0
# From MPEC 2024-NE4
465P/Hill,e,25.8617,217.9437,140.9748,6.006026,0.0669612,0.61306218,57.7338,09/17.0/2025,2000,g 12.5,4.0
# From MPEC 2024-JU4
466P/PANSTARRS,e,13.6957,116.8856,198.1752,4.008982,0.1227871,0.48599852,105.1351,09/17.0/2025,2000,g 14.0,4.0
# From MPEC 2025-A40
467P/LINEAR-Grauer,e,2.4794,43.2623,267.3595,5.825277,0.0701018,0.05435798,71.9981,09/17.0/2025,2000,g  9.0,4.0
# From MPEC 2024-O39
468P/SidingSpring,e,50.4536,356.1278,322.5693,7.116026,0.0519216,0.44484989,34.5791,09/17.0/2025,2000,g 11.5,4.0
# From MPEC 2025-A40
469P/PANSTARRS,e,20.1716,178.9667,43.4915,4.343013,0.1088974,0.30808248,351.0282,09/17.0/2025,2000,g 13.5,4.0
# From MPC182892
470P/PANSTARRS,e,8.8439,246.1643,151.6685,4.462771,0.1045435,0.38930560,66.9482,09/17.0/2025,2000,g 15.5,4.0
# From MPC182892
471P/LINEAR-Lemmon,e,4.7970,283.3125,94.7592,5.690936,0.0725987,0.62763380,46.2635,09/17.0/2025,2000,g 12.0,4.0
# From MPC185666
472P/NEAT-LINEAR,e,10.8252,205.8247,218.8210,7.771111,0.0454966,0.56417642,19.5684,09/17.0/2025,2000,g 10.5,4.0
# From MPEC 2024-MB8
473P/NEAT,e,56.8914,22.1909,42.9421,7.973415,0.0437761,0.82359239,24.8985,09/17.0/2025,2000,g 13.5,4.0
# From MPEC 2024-B74
474P/Hogan,e,1.0969,26.7512,11.2679,3.130688,0.1779280,0.18798487,141.3428,09/17.0/2025,2000,g 15.5,4.0
# From MPC185666
475P/Spacewatch-LINEAR,e,14.5238,147.3561,40.4147,7.319038,0.0497764,0.44291343,23.5096,09/17.0/2025,2000,g 11.0,4.0
# From MPC184421
476P/PANSTARRS,e,19.0053,57.0487,46.7380,4.774671,0.0944689,0.34581406,31.6961,09/17.0/2025,2000,g 12.5,4.0
# From MPEC 2024-GJ3
477P/PANSTARRS,e,8.9138,59.1421,305.8669,3.001753,0.1895141,0.41755544,119.4904,09/17.0/2025,2000,g 14.5,4.0
# From MPEC 2024-L77
478P/ATLAS,e,12.5249,127.2605,13.2552,3.648224,0.1414431,0.34379020,71.1156,09/17.0/2025,2000,g 13.5,4.0
# From MPEC 2024-PC5
479P/Elenin,e,15.3999,295.8329,263.4987,5.622635,0.0739255,0.77893888,36.9421,09/17.0/2025,2000,g 15.0,4.0
# From MPC182893
480P/PANSTARRS,e,13.7162,229.9828,214.4430,4.611349,0.0995319,0.24628856,87.3018,09/17.0/2025,2000,g 12.0,4.0
# From MPEC 2025-A40
481P/Lemmon-PANSTARRS,e,6.0827,93.5497,356.8237,4.682251,0.0972796,0.34344935,77.8852,09/17.0/2025,2000,g 13.5,4.0
# From MPEC 2024-JU4
482P/PANSTARRS,e,24.4882,126.0740,339.7359,3.757082,0.1353406,0.49236993,113.3861,09/17.0/2025,2000,g 13.5,4.0
# From MPC186638
483P-A/PANSTARRS,e,14.1770,199.1200,49.3782,3.195422,0.1725487,0.22191043,224.4374,09/17.0/2025,2000,g 13.5,4.0
# From MPC185666
483P-B/PANSTARRS,e,14.1778,199.1191,49.3689,3.195344,0.1725551,0.22185248,224.4730,09/17.0/2025,2000,g 17.0,4.0
# From MPEC 2024-DD5
484P/Spacewatch,e,14.4742,265.3761,240.8121,3.756588,0.1353673,0.43304069,237.4175,09/17.0/2025,2000,g 16.0,4.0
# From MPEC 2024-JU4
485P/Sheppard-Tholen,e,10.0161,261.6442,196.1205,6.851957,0.0549518,0.41719259,41.4157,09/17.0/2025,2000,g 13.0,4.0
# From MPEC 2025-S35
486P/Leonard,e,2.2096,219.0231,93.9425,3.627336,0.1426666,0.36345457,23.7062,09/17.0/2025,2000,g 14.5,4.0
# From MPC185666
487P/SidingSpring,e,39.3662,49.2010,0.8406,5.161265,0.0840562,0.64839460,27.8584,09/17.0/2025,2000,g 13.5,4.0
# From MPEC 2024-UA9
488P/NEAT-PANSTARRS,e,11.3952,323.8005,1.9637,3.746238,0.1359287,0.55143000,65.9478,09/17.0/2025,2000,g 16.5,4.0
# From MPEC 2024-Q14
489P/Denning,e,4.0259,20.6044,109.4186,4.425780,0.1058569,0.64722128,351.7100,09/17.0/2025,2000,g 15.5,4.0
# From MPEC 2024-YC7
490P/ATLAS,e,12.2668,307.5937,332.5655,3.030362,0.1868367,0.64707400,66.1121,09/17.0/2025,2000,g 21.0,4.0
# From MPEC 2025-S35
491P/Spacewatch-PANSTARRS,e,9.3667,311.6835,298.8607,5.012940,0.0878143,0.25867601,33.0292,09/17.0/2025,2000,g  9.5,4.0
# From MPC185666
492P/LINEAR,e,11.4012,11.3047,40.9819,5.758932,0.0713167,0.69056556,30.2080,09/17.0/2025,2000,g 15.0,4.0
# From MPEC 2025-S35
493P/LONEOS,e,24.1097,1.0976,83.2114,7.171646,0.0513187,0.46692812,353.8886,09/17.0/2025,2000,g 12.0,2.0
# From MPEC 2024-RQ6
494P/PANSTARRS,e,7.7899,245.0434,48.8834,3.794410,0.1333483,0.35675594,63.2108,09/17.0/2025,2000,g 16.0,4.0
# From MPEC 2025-A40
495P/Christensen,e,26.3558,291.6149,141.3321,4.758740,0.0949437,0.27293471,356.6460,09/17.0/2025,2000,g 11.5,4.0
# From MPEC 2025-R69
496P/Hill,e,14.8144,63.5860,42.2473,6.098883,0.0654378,0.73420160,12.4805,09/17.0/2025,2000,g 14.0,4.0
# From MPC184421
497P/Spacewatch-PANSTARRS,e,10.4368,40.3644,32.3941,5.612651,0.0741228,0.63032129,15.8421,09/17.0/2025,2000,g 17.5,4.0
# From MPC184421
498P/LINEAR,e,14.4827,279.2299,179.0845,4.592789,0.1001358,0.57228371,27.2456,09/17.0/2025,2000,g 14.7,4.0
# From MPEC 2025-R69
499P/Catalina,e,24.5827,139.3064,2.5618,3.017844,0.1880005,0.69147993,36.9615,09/17.0/2025,2000,g 18.5,4.0
# From MPC185667
500P/PANSTARRS,e,2.3015,111.5271,46.6960,3.415948,0.1561123,0.37590841,26.3887,09/17.0/2025,2000,g 16.0,4.0
# From MPC182882
501P/Rankin,e,10.0472,139.7820,53.6883,2.227950,0.2963780,0.69850122,154.3208,09/17.0/2025,2000,g 21.5,4.0
# From MPEC 2025-S35
502P/NEAT,e,11.3996,264.4846,37.7344,7.996374,0.0435877,0.47107352,1.8728,09/17.0/2025,2000,g  8.5,4.0
# From MPC185667
503P/PANSTARRS,e,10.5749,268.5819,17.9471,3.658013,0.1408758,0.48131350,353.0185,09/17.0/2025,2000,g 15.0,4.0
# From MPC186639
504P/,e,8.8067,221.1201,308.5287,3.744547,0.1360207,0.40604625,21.8934,09/17.0/2025,2000,g 14.3,4.0
# From MPC184407
505P/Palomar,e,11.3882,111.9423,143.9598,4.112620,0.1181752,0.31063844,345.5011,09/17.0/2025,2000,g 14.9,4.0
# From MPC186639
506P/,e,13.6530,325.6426,354.5234,5.583983,0.0746944,0.48262342,56.1948,09/17.0/2025,2000,g 12.7,4.0
# From MPC184407
507P/Lemmon,e,17.0972,233.1727,107.7720,6.216538,0.0635889,0.56870522,64.9143,09/17.0/2025,2000,g 12.6,4.0
# From MPEC 2025-R69
508P/McNaught,e,31.7335,268.8302,338.8794,3.574949,0.1458140,0.56941872,9.8786,09/17.0/2025,2000,g 16.5,4.0
# From MPEC 2025-R69
509P/Catalina,e,8.6043,275.2071,180.1202,7.032063,0.0528543,0.47486283,350.2772,09/17.0/2025,2000,g 10.0,4.0
# From MPEC 2025-S35
510P/Boattini,e,8.2278,280.6705,86.6818,6.484268,0.0596915,0.24816028,338.6790,09/17.0/2025,2000,g  9.5,4.0
# From MPC107687
1I/`Oumuamua,h,09/09.4886/2017,122.6778,24.5997,241.6845,1.199252,0.255240,2000,23.0,2.0
# From MPEC 2025-R69
2I/Borisov,h,12/09.0572/2019,44.2624,307.8024,209.2911,3.345952,1.997724,2000,11.0,4.0
# From MPEC 2025-S35
3I/ATLAS,h,10/29.4837/2025,175.1131,322.1578,128.0129,6.138618,1.356325,2000,11.8,4.0
